[
  {
    "name": "ONEWEB-0131",
    "noradId": "47277",
    "line1": "1 47277U 20100V   26192.81109503  .00000291  00000+0  77447-3 0  9990",
    "line2": "2 47277  87.8957 345.7723 0001828 100.3866 259.7469 13.12441591267915"
  },
  {
    "name": "ONEWEB-0132",
    "noradId": "47278",
    "line1": "1 47278U 20100W   26192.83988184 -.00000427  00000+0 -12217-2 0  9999",
    "line2": "2 47278  87.8959 345.7690 0001832  97.0555 263.0782 13.12442440267812"
  },
  {
    "name": "ONEWEB-0133",
    "noradId": "47279",
    "line1": "1 47279U 20100X   26192.85668683  .00000000  00000+0 -34748-4 0  9992",
    "line2": "2 47279  87.8977 345.7449 0001898 100.7634 259.3709 13.12444037267975"
  },
  {
    "name": "ONEWEB-0134",
    "noradId": "47280",
    "line1": "1 47280U 20100Y   26192.82633147 -.00000252  00000+0 -73689-3 0  9994",
    "line2": "2 47280  87.8969 345.7477 0002026 101.8256 258.3100 13.12441137267944"
  },
  {
    "name": "ONEWEB-0135",
    "noradId": "47281",
    "line1": "1 47281U 20100Z   26192.49258862  .00000442  00000+0  11919-2 0  9991",
    "line2": "2 47281  87.8957 345.8335 0001961 105.1217 255.0129 13.12442919267929"
  },
  {
    "name": "ONEWEB-0136",
    "noradId": "47282",
    "line1": "1 47282U 20100AA  26192.81616992  .00000078  00000+0  18030-3 0  9997",
    "line2": "2 47282  87.8934 345.7518 0001716 105.0404 255.0914 13.12441863267897"
  },
  {
    "name": "ONEWEB-0137",
    "noradId": "47283",
    "line1": "1 47283U 20100AB  26192.85004830 -.00000251  00000+0 -73292-3 0  9990",
    "line2": "2 47283  87.8972 345.7575 0001824  92.0110 268.1228 13.12444145267802"
  },
  {
    "name": "ONEWEB-0138",
    "noradId": "47284",
    "line1": "1 47284U 20100AC  26192.82802796 -.00000283  00000+0 -82143-3 0  9995",
    "line2": "2 47284  87.8959 345.7651 0001993 100.1952 259.9401 13.12441340267888"
  },
  {
    "name": "ONEWEB-0139",
    "noradId": "47285",
    "line1": "1 47285U 20100AD  26192.86883808  .00000399  00000+0  10736-2 0  9997",
    "line2": "2 47285  87.8967 345.7442 0001873  96.4038 263.7304 13.12443273267966"
  },
  {
    "name": "ONEWEB-0140",
    "noradId": "47286",
    "line1": "1 47286U 20100AE  26192.82294478 -.00000103  00000+0 -32228-3 0  9999",
    "line2": "2 47286  87.8972 345.7440 0001682 100.5027 259.6291 13.12441863267922"
  },
  {
    "name": "ONEWEB-0141",
    "noradId": "47287",
    "line1": "1 47287U 20100AF  26192.86855215  .00000414  00000+0  11142-2 0  9990",
    "line2": "2 47287  87.8969 345.7403 0001906  86.9740 273.1606 13.12443629267918"
  },
  {
    "name": "ONEWEB-0142",
    "noradId": "47288",
    "line1": "1 47288U 20100AG  26192.85697053  .00000050  00000+0  10368-3 0  9990",
    "line2": "2 47288  87.8960 345.7625 0002200  89.7424 270.3957 13.12445204267902"
  },
  {
    "name": "ONEWEB-0143",
    "noradId": "47289",
    "line1": "1 47289U 20100AH  26192.86699779  .00000307  00000+0  81881-3 0  9992",
    "line2": "2 47289  87.8960 345.7604 0001808  94.9430 265.1905 13.12444109267883"
  },
  {
    "name": "ONEWEB-0144",
    "noradId": "47290",
    "line1": "1 47290U 20100AJ  26192.83819073 -.00000373  00000+0 -10715-2 0  9994",
    "line2": "2 47290  87.8958 345.7404 0002085  98.0957 262.0408 13.12442752267805"
  },
  {
    "name": "ONEWEB-0145",
    "noradId": "47291",
    "line1": "1 47291U 20100AK  26192.80939750  .00000366  00000+0  98257-3 0  9995",
    "line2": "2 47291  87.8927 345.7685 0001217  90.1507 269.9761 13.12441612267995"
  },
  {
    "name": "ONEWEB-0146",
    "noradId": "47292",
    "line1": "1 47292U 20100AL  26192.80601115  .00000363  00000+0  97383-3 0  9993",
    "line2": "2 47292  87.8968 345.7666 0001517  96.8727 263.2574 13.12442013267906"
  },
  {
    "name": "ONEWEB-0147",
    "noradId": "47293",
    "line1": "1 47293U 20100AM  26192.84835606 -.00000184  00000+0 -54812-3 0  9995",
    "line2": "2 47293  87.8971 345.7399 0001820  99.6562 260.4772 13.12444378267803"
  },
  {
    "name": "ONEWEB-0115",
    "noradId": "48042",
    "line1": "1 48042U 21025A   26192.85723823  .00000195  00000+0  49779-3 0  9999",
    "line2": "2 48042  87.8974 315.3144 0001904 102.0537 258.0805 13.13471246256830"
  },
  {
    "name": "ONEWEB-0152",
    "noradId": "48043",
    "line1": "1 48043U 21025B   26192.79462464  .00000926  00000+0  25010-2 0  9997",
    "line2": "2 48043  87.9003 315.3253 0002183 150.0798 210.0456 13.13472849256782"
  },
  {
    "name": "ONEWEB-0153",
    "noradId": "48044",
    "line1": "1 48044U 21025C   26192.84878726  .00000013  00000+0  71704-6 0  9998",
    "line2": "2 48044  87.8976 315.3144 0002007  96.6229 263.5129 13.13470198256784"
  },
  {
    "name": "ONEWEB-0154",
    "noradId": "48045",
    "line1": "1 48045U 21025D   26192.84540319 -.00000090  00000+0 -28128-3 0  9999",
    "line2": "2 48045  87.8986 315.3143 0001850 104.7846 255.3488 13.13470691256747"
  },
  {
    "name": "ONEWEB-0116",
    "noradId": "48046",
    "line1": "1 48046U 21025E   26192.80816289  .00000037  00000+0  66987-4 0  9993",
    "line2": "2 48046  87.8986 315.3192 0001826 100.5270 259.6065 13.13468996256888"
  },
  {
    "name": "ONEWEB-0150",
    "noradId": "48047",
    "line1": "1 48047U 21025F   26192.86064580  .00000292  00000+0  76555-3 0  9993",
    "line2": "2 48047  87.8982 315.3064 0001831  96.5237 263.6101 13.13470299256780"
  },
  {
    "name": "ONEWEB-0107",
    "noradId": "48048",
    "line1": "1 48048U 21025G   26192.86234561  .00000259  00000+0  67446-3 0  9994",
    "line2": "2 48048  87.8983 315.3019 0002149  98.5511 261.5862 13.13472212256768"
  },
  {
    "name": "ONEWEB-0101",
    "noradId": "48049",
    "line1": "1 48049U 21025H   26192.82509054 -.00000258  00000+0 -74200-3 0  9990",
    "line2": "2 48049  87.8975 315.3221 0002090 101.5123 258.6241 13.13470773256739"
  },
  {
    "name": "ONEWEB-0113",
    "noradId": "48050",
    "line1": "1 48050U 21025J   26192.84152517 -.00000202  00000+0 -58421-3 0  9998",
    "line2": "2 48050  87.8978 315.2269 0001887  95.3377 264.7968 13.13891630256844"
  },
  {
    "name": "ONEWEB-0112",
    "noradId": "48051",
    "line1": "1 48051U 21025K   26192.86741670  .00000234  00000+0  60512-3 0  9992",
    "line2": "2 48051  87.8986 315.2987 0002177 102.5202 257.6171 13.13468852256834"
  },
  {
    "name": "ONEWEB-0156",
    "noradId": "48052",
    "line1": "1 48052U 21025L   26192.79969940  .00000284  00000+0  74217-3 0  9999",
    "line2": "2 48052  87.8987 315.3218 0002032  97.1783 262.9577 13.13471655256808"
  },
  {
    "name": "ONEWEB-0161",
    "noradId": "48053",
    "line1": "1 48053U 21025M   26192.85047933  .00000070  00000+0  15593-3 0  9991",
    "line2": "2 48053  87.8985 315.3128 0002015  96.0175 264.1183 13.13470397256743"
  },
  {
    "name": "ONEWEB-0158",
    "noradId": "48054",
    "line1": "1 48054U 21025N   26192.80986807  .00000076  00000+0  17332-3 0  9998",
    "line2": "2 48054  87.8985 315.3196 0001865 103.4877 256.6460 13.13464534256866"
  }
]