OBJECT_NAME,OBJECT_ID,EPOCH,MEAN_MOTION,ECCENTRICITY,INCLINATION,RA_OF_ASC_NODE,ARG_OF_PERICENTER,MEAN_ANOMALY,EPHEMERIS_TYPE,CLASSIFICATION_TYPE,NORAD_CAT_ID,ELEMENT_SET_NO,REV_AT_EPOCH,BSTAR,MEAN_MOTION_DOT,MEAN_MOTION_DDOT
ONEWEB-0131,2020-100V,2026-07-11T19:27:58.610592,13.12441591,.0001828,87.8957,345.7723,100.3866,259.7469,0,U,47277,999,26791,.77447E-3,.291E-5,0
ONEWEB-0132,2020-100W,2026-07-11T20:09:25.790976,13.12442440,.0001832,87.8959,345.7690,97.0555,263.0782,0,U,47278,999,26781,-.12217E-2,-.427E-5,0
ONEWEB-0133,2020-100X,2026-07-11T20:33:37.742112,13.12444037,.0001898,87.8977,345.7449,100.7634,259.3709,0,U,47279,999,26797,-.34748E-4,0,0
ONEWEB-0134,2020-100Y,2026-07-11T19:49:55.039008,13.12441137,.0002026,87.8969,345.7477,101.8256,258.3100,0,U,47280,999,26794,-.73689E-3,-.252E-5,0
ONEWEB-0135,2020-100Z,2026-07-11T11:49:19.656768,13.12442919,.00019619,87.8957,345.8335,105.1217,255.0129,0,U,47281,999,26792,.11918696E-2,.442E-5,0
ONEWEB-0136,2020-100AA,2026-07-11T19:35:17.081088,13.12441863,.0001716,87.8934,345.7518,105.0404,255.0914,0,U,47282,999,26789,.1803E-3,.78E-6,0
ONEWEB-0137,2020-100AB,2026-07-11T20:24:04.173120,13.12444145,.0001824,87.8972,345.7575,92.0110,268.1228,0,U,47283,999,26780,-.73292E-3,-.251E-5,0
ONEWEB-0138,2020-100AC,2026-07-11T19:52:21.615744,13.12441340,.0001993,87.8959,345.7651,100.1952,259.9401,0,U,47284,999,26788,-.82143E-3,-.283E-5,0
ONEWEB-0139,2020-100AD,2026-07-11T20:51:07.610112,13.12443273,.0001873,87.8967,345.7442,96.4038,263.7304,0,U,47285,999,26796,.10736E-2,.399E-5,0
ONEWEB-0140,2020-100AE,2026-07-11T19:45:02.428992,13.12441863,.0001682,87.8972,345.7440,100.5027,259.6291,0,U,47286,999,26792,-.32228E-3,-.103E-5,0
ONEWEB-0141,2020-100AF,2026-07-11T20:50:42.905760,13.12443629,.0001906,87.8969,345.7403,86.9740,273.1606,0,U,47287,999,26791,.11142E-2,.414E-5,0
ONEWEB-0142,2020-100AG,2026-07-11T20:34:02.253792,13.12445204,.00022,87.8960,345.7625,89.7424,270.3957,0,U,47288,999,26790,.10368E-3,.5E-6,0
ONEWEB-0143,2020-100AH,2026-07-11T20:48:28.609056,13.12444109,.0001808,87.8960,345.7604,94.9430,265.1905,0,U,47289,999,26788,.81881E-3,.307E-5,0
ONEWEB-0144,2020-100AJ,2026-07-11T20:06:59.679072,13.12442752,.0002085,87.8958,345.7404,98.0957,262.0408,0,U,47290,999,26780,-.10715E-2,-.373E-5,0
ONEWEB-0145,2020-100AK,2026-07-11T19:25:31.944000,13.12441612,.0001217,87.8927,345.7685,90.1507,269.9761,0,U,47291,999,26799,.98257E-3,.366E-5,0
ONEWEB-0146,2020-100AL,2026-07-11T19:20:39.363360,13.12442013,.0001517,87.8968,345.7666,96.8727,263.2574,0,U,47292,999,26790,.97383E-3,.363E-5,0
ONEWEB-0147,2020-100AM,2026-07-11T20:21:37.963584,13.12444378,.000182,87.8971,345.7399,99.6562,260.4772,0,U,47293,999,26780,-.54812E-3,-.184E-5,0
ONEWEB-0115,2021-025A,2026-07-11T20:34:25.383072,13.13471246,.0001904,87.8974,315.3144,102.0537,258.0805,0,U,48042,999,25683,.49779E-3,.195E-5,0
ONEWEB-0152,2021-025B,2026-07-11T19:04:15.568896,13.13472849,.0002183,87.9003,315.3253,150.0798,210.0456,0,U,48043,999,25678,.2501E-2,.926E-5,0
ONEWEB-0153,2021-025C,2026-07-11T20:22:15.219264,13.13470198,.0002007,87.8976,315.3144,96.6229,263.5129,0,U,48044,999,25678,.71704E-6,.13E-6,0
ONEWEB-0154,2021-025D,2026-07-11T20:17:22.835616,13.13470691,.000185,87.8986,315.3143,104.7846,255.3488,0,U,48045,999,25674,-.28128E-3,-.9E-6,0
ONEWEB-0116,2021-025E,2026-07-11T19:23:45.273696,13.13468996,.0001826,87.8986,315.3192,100.5270,259.6065,0,U,48046,999,25688,.66987E-4,.37E-6,0
ONEWEB-0150,2021-025F,2026-07-11T20:39:19.797120,13.13470299,.0001831,87.8982,315.3064,96.5237,263.6101,0,U,48047,999,25678,.76555E-3,.292E-5,0
ONEWEB-0107,2021-025G,2026-07-11T20:41:46.660704,13.13472212,.0002149,87.8983,315.3019,98.5511,261.5862,0,U,48048,999,25676,.67446E-3,.259E-5,0
ONEWEB-0101,2021-025H,2026-07-11T19:48:07.822656,13.13470773,.000209,87.8975,315.3221,101.5123,258.6241,0,U,48049,999,25673,-.742E-3,-.258E-5,0
ONEWEB-0113,2021-025J,2026-07-11T20:11:47.774688,13.13891630,.0001887,87.8978,315.2269,95.3377,264.7968,0,U,48050,999,25684,-.58421E-3,-.202E-5,0
ONEWEB-0112,2021-025K,2026-07-11T20:49:04.802880,13.13468852,.0002177,87.8986,315.2987,102.5202,257.6171,0,U,48051,999,25683,.60512E-3,.234E-5,0
ONEWEB-0156,2021-025L,2026-07-11T19:11:34.028160,13.13471655,.0002032,87.8987,315.3218,97.1783,262.9577,0,U,48052,999,25680,.74217E-3,.284E-5,0
ONEWEB-0161,2021-025M,2026-07-11T20:24:41.414112,13.13470397,.0002015,87.8985,315.3128,96.0175,264.1183,0,U,48053,999,25674,.15593E-3,.7E-6,0
ONEWEB-0158,2021-025N,2026-07-11T19:26:12.601248,13.13464534,.0001865,87.8985,315.3196,103.4877,256.6460,0,U,48054,999,25686,.17332E-3,.76E-6,0
